start=new Date('2022-05-23T00:00:00.000Z').valueOf();
sats=[{"CLASSIFICATION_TYPE":"U","REF_FRAME":"TEME","PERIAPSIS":"545.698","MEAN_MOTION_DOT":"-0.00001468","FILE":"3459268","REV_AT_EPOCH":"11010","RCS_SIZE":"LARGE","TLE_LINE2":"2 45714  53.0538 143.0245 0002169  41.7304 318.3850 15.06404466110100","COUNTRY_CODE":"US","RA_OF_ASC_NODE":"143.0245","EPHEMERIS_TYPE":"0","LAUNCH_DATE":"2020-06-04","ECCENTRICITY":"0.00021690","PERIOD":"95.592","MEAN_MOTION_DDOT":"0.0000000000000","OBJECT_TYPE":"PAYLOAD","MEAN_ELEMENT_THEORY":"SGP4","ARG_OF_PERICENTER":"41.7304","EPOCH":"2022-05-22T16:58:20.840160","INCLINATION":"53.0538","OBJECT_ID":"2020-035BK","GP_ID":"204279020","CENTER_NAME":"EARTH","SITE":"AFETR","TLE_LINE1":"1 45714U 20035BK  22142.70718565 -.00001468  00000-0 -79660-4 0  9994","MEAN_MOTION":"15.06404466","NORAD_CAT_ID":"45714","TIME_SYSTEM":"UTC","ELEMENT_SET_NO":"999","SEMIMAJOR_AXIS":"6925.335","MEAN_ANOMALY":"318.3850","OBJECT_NAME":"STARLINK-1437","DECAY_DATE":null,"APOAPSIS":"548.702","BSTAR":"-0.00007966000000"},{"MEAN_ANOMALY":"291.8900","OBJECT_NAME":"STARLINK-1461","APOAPSIS":"548.249","DECAY_DATE":null,"BSTAR":"0.00002209900000","ELEMENT_SET_NO":"999","SEMIMAJOR_AXIS":"6925.373","NORAD_CAT_ID":"45730","TIME_SYSTEM":"UTC","MEAN_MOTION":"15.06392036","SITE":"AFETR","TLE_LINE1":"1 45730U 20038A   22142.85093605  .00000048  00000-0  22099-4 0  9997","GP_ID":"204279766","CENTER_NAME":"EARTH","OBJECT_ID":"2020-038A","INCLINATION":"53.0579","EPOCH":"2022-05-22T20:25:20.874720","ARG_OF_PERICENTER":"68.2244","MEAN_ELEMENT_THEORY":"SGP4","LAUNCH_DATE":"2020-06-13","MEAN_MOTION_DDOT":"0.0000000000000","PERIOD":"95.593","ECCENTRICITY":"0.00014600","OBJECT_TYPE":"PAYLOAD","RA_OF_ASC_NODE":"342.3855","EPHEMERIS_TYPE":"0","FILE":"3459268","MEAN_MOTION_DOT":"0.00000048","REV_AT_EPOCH":"10717","RCS_SIZE":"LARGE","TLE_LINE2":"2 45730  53.0579 342.3855 0001460  68.2244 291.8900 15.06392036107177","COUNTRY_CODE":"US","PERIAPSIS":"546.227","REF_FRAME":"TEME","CLASSIFICATION_TYPE":"U"},{"MEAN_ELEMENT_THEORY":"SGP4","ECCENTRICITY":"0.00012660","PERIOD":"95.592","MEAN_MOTION_DDOT":"0.0000000000000","OBJECT_TYPE":"PAYLOAD","LAUNCH_DATE":"2020-06-13","EPOCH":"2022-05-22T20:46:33.791232","INCLINATION":"53.0558","ARG_OF_PERICENTER":"65.4558","PERIAPSIS":"546.317","REF_FRAME":"TEME","CLASSIFICATION_TYPE":"U","EPHEMERIS_TYPE":"0","RA_OF_ASC_NODE":"342.3149","COUNTRY_CODE":"US","TLE_LINE2":"2 45731  53.0558 342.3149 0001266  65.4558 294.6563 15.06406494107161","FILE":"3459268","MEAN_MOTION_DOT":"0.00000661","REV_AT_EPOCH":"10716","RCS_SIZE":"LARGE","TIME_SYSTEM":"UTC","NORAD_CAT_ID":"45731","MEAN_MOTION":"15.06406494","OBJECT_NAME":"STARLINK-1465","MEAN_ANOMALY":"294.6563","DECAY_DATE":null,"BSTAR":"0.00006325200000","APOAPSIS":"548.070","ELEMENT_SET_NO":"999","SEMIMAJOR_AXIS":"6925.329","CENTER_NAME":"EARTH","GP_ID":"204278022","OBJECT_ID":"2020-038B","TLE_LINE1":"1 45731U 20038B   22142.86566888  .00000661  00000-0  63252-4 0  9994","SITE":"AFETR"},{"OBJECT_TYPE":"PAYLOAD","ECCENTRICITY":"0.00016060","PERIOD":"95.592","MEAN_MOTION_DDOT":"0.0000000000000","LAUNCH_DATE":"2020-06-13","MEAN_ELEMENT_THEORY":"SGP4","ARG_OF_PERICENTER":"49.9732","INCLINATION":"53.0555","EPOCH":"2022-05-22T20:30:39.427200","CLASSIFICATION_TYPE":"U","REF_FRAME":"TEME","PERIAPSIS":"546.117","TLE_LINE2":"2 45732  53.0555 342.3575 0001606  49.9732 310.1398 15.06394790107166","COUNTRY_CODE":"US","RCS_SIZE":"LARGE","REV_AT_EPOCH":"10716","FILE":"3459268","MEAN_MOTION_DOT":"-0.00001378","EPHEMERIS_TYPE":"0","RA_OF_ASC_NODE":"342.3575","MEAN_MOTION":"15.06394790","TIME_SYSTEM":"UTC","NORAD_CAT_ID":"45732","SEMIMAJOR_AXIS":"6925.365","ELEMENT_SET_NO":"999","DECAY_DATE":null,"APOAPSIS":"548.342","BSTAR":"-0.00007365000000","OBJECT_NAME":"STARLINK-1466","MEAN_ANOMALY":"310.1398","OBJECT_ID":"2020-038C","CENTER_NAME":"EARTH","GP_ID":"204278272","TLE_LINE1":"1 45732U 20038C   22142.85462300 -.00001378  00000-0 -73650-4 0  9999","SITE":"AFETR"},{"ELEMENT_SET_NO":"999","SEMIMAJOR_AXIS":"6925.383","OBJECT_NAME":"STARLINK-1467","MEAN_ANOMALY":"291.8897","APOAPSIS":"548.371","DECAY_DATE":null,"BSTAR":"-0.00009645600000","MEAN_MOTION":"15.06388747","NORAD_CAT_ID":"45733","TIME_SYSTEM":"UTC","SITE":"AFETR","TLE_LINE1":"1 45733U 20038D   22142.86200450 -.00001717  00000-0 -96456-4 0  9993","OBJECT_ID":"2020-038D","GP_ID":"204279021","CENTER_NAME":"EARTH","ARG_OF_PERICENTER":"68.2264","INCLINATION":"53.0544","EPOCH":"2022-05-22T20:41:17.188800","LAUNCH_DATE":"2020-06-13","ECCENTRICITY":"0.00016220","PERIOD":"95.593","MEAN_MOTION_DDOT":"0.0000000000000","OBJECT_TYPE":"PAYLOAD","MEAN_ELEMENT_THEORY":"SGP4","FILE":"3459268","MEAN_MOTION_DOT":"-0.00001717","REV_AT_EPOCH":"10716","RCS_SIZE":"LARGE","COUNTRY_CODE":"US","TLE_LINE2":"2 45733  53.0544 342.3309 0001622  68.2264 291.8897 15.06388747107166","RA_OF_ASC_NODE":"342.3309","EPHEMERIS_TYPE":"0","CLASSIFICATION_TYPE":"U","PERIAPSIS":"546.125","REF_FRAME":"TEME"},{"ARG_OF_PERICENTER":"54.0111","EPOCH":"2022-05-22T20:14:44.289888","INCLINATION":"53.0558","OBJECT_TYPE":"PAYLOAD","PERIOD":"95.593","MEAN_MOTION_DDOT":"0.0000000000000","ECCENTRICITY":"0.00016400","LAUNCH_DATE":"2020-06-13","MEAN_ELEMENT_THEORY":"SGP4","TLE_LINE2":"2 45734  53.0558 342.4208 0001640  54.0111 306.1030 15.06388070107163","COUNTRY_CODE":"US","RCS_SIZE":"LARGE","MEAN_MOTION_DOT":"0.00000200","FILE":"3459268","REV_AT_EPOCH":"10716","EPHEMERIS_TYPE":"0","RA_OF_ASC_NODE":"342.4208","CLASSIFICATION_TYPE":"U","PERIAPSIS":"546.114","REF_FRAME":"TEME","SEMIMAJOR_AXIS":"6925.385","ELEMENT_SET_NO":"999","DECAY_DATE":null,"APOAPSIS":"548.386","BSTAR":"0.00003235900000","OBJECT_NAME":"STARLINK-1468","MEAN_ANOMALY":"306.1030","MEAN_MOTION":"15.06388070","TIME_SYSTEM":"UTC","NORAD_CAT_ID":"45734","TLE_LINE1":"1 45734U 20038E   22142.84356817  .00000200  00000-0  32359-4 0  9997","SITE":"AFETR","OBJECT_ID":"2020-038E","CENTER_NAME":"EARTH","GP_ID":"204279267"},{"CLASSIFICATION_TYPE":"U","PERIAPSIS":"546.257","REF_FRAME":"TEME","TLE_LINE2":"2 45735  53.0558 342.5515 0001396  76.3637 283.7507 15.06396824107158","COUNTRY_CODE":"US","REV_AT_EPOCH":"10715","FILE":"3459268","MEAN_MOTION_DOT":"0.00000710","RCS_SIZE":"LARGE","EPHEMERIS_TYPE":"0","RA_OF_ASC_NODE":"342.5515","PERIOD":"95.592","MEAN_MOTION_DDOT":"0.0000000000000","ECCENTRICITY":"0.00013960","OBJECT_TYPE":"PAYLOAD","LAUNCH_DATE":"2020-06-13","MEAN_ELEMENT_THEORY":"SGP4","ARG_OF_PERICENTER":"76.3637","INCLINATION":"53.0558","EPOCH":"2022-05-22T19:32:16.718496","OBJECT_ID":"2020-038F","CENTER_NAME":"EARTH","GP_ID":"204278522","TLE_LINE1":"1 45735U 20038F   22142.81408239  .00000710  00000-0  66535-4 0  9990","SITE":"AFETR","MEAN_MOTION":"15.06396824","TIME_SYSTEM":"UTC","NORAD_CAT_ID":"45735","ELEMENT_SET_NO":"999","SEMIMAJOR_AXIS":"6925.358","MEAN_ANOMALY":"283.7507","OBJECT_NAME":"STARLINK-1471","DECAY_DATE":null,"BSTAR":"0.00006653500000","APOAPSIS":"548.190"},{"OBJECT_ID":"2020-038G","GP_ID":"204278772","CENTER_NAME":"EARTH","SITE":"AFETR","TLE_LINE1":"1 45736U 20038G   22142.80732850  .00017797  00000-0  48976-3 0  9990","MEAN_MOTION":"15.37267229","NORAD_CAT_ID":"45736","TIME_SYSTEM":"UTC","SEMIMAJOR_AXIS":"6832.331","ELEMENT_SET_NO":"999","APOAPSIS":"455.634","DECAY_DATE":null,"BSTAR":"0.00048976000000","OBJECT_NAME":"STARLINK-1472","MEAN_ANOMALY":"197.6872","CLASSIFICATION_TYPE":"U","REF_FRAME":"TEME","PERIAPSIS":"452.759","RCS_SIZE":"LARGE","REV_AT_EPOCH":"10748","FILE":"3459268","MEAN_MOTION_DOT":"0.00017797","COUNTRY_CODE":"US","TLE_LINE2":"2 45736  53.0637 319.6445 0002104 162.4204 197.6872 15.37267229107483","RA_OF_ASC_NODE":"319.6445","EPHEMERIS_TYPE":"0","LAUNCH_DATE":"2020-06-13","OBJECT_TYPE":"PAYLOAD","PERIOD":"93.673","ECCENTRICITY":"0.00021040","MEAN_MOTION_DDOT":"0.0000000000000","MEAN_ELEMENT_THEORY":"SGP4","ARG_OF_PERICENTER":"162.4204","INCLINATION":"53.0637","EPOCH":"2022-05-22T19:22:33.182400"},{"REF_FRAME":"TEME","PERIAPSIS":"545.700","CLASSIFICATION_TYPE":"U","RA_OF_ASC_NODE":"342.3034","EPHEMERIS_TYPE":"0","RCS_SIZE":"LARGE","FILE":"3459268","MEAN_MOTION_DOT":"-0.00003019","REV_AT_EPOCH":"10716","COUNTRY_CODE":"US","TLE_LINE2":"2 45738  53.0580 342.3034 0002206  57.8234 302.2969 15.06395522107162","MEAN_ELEMENT_THEORY":"SGP4","LAUNCH_DATE":"2020-06-13","OBJECT_TYPE":"PAYLOAD","PERIOD":"95.592","ECCENTRICITY":"0.00022060","MEAN_MOTION_DDOT":"0.0000000000000","EPOCH":"2022-05-22T20:51:51.923808","INCLINATION":"53.0580","ARG_OF_PERICENTER":"57.8234","GP_ID":"204279521","CENTER_NAME":"EARTH","OBJECT_ID":"2020-038J","SITE":"AFETR","TLE_LINE1":"1 45738U 20038J   22142.86935097 -.00003019  00000-0 -18388-3 0  9994","NORAD_CAT_ID":"45738","TIME_SYSTEM":"UTC","MEAN_MOTION":"15.06395522","DECAY_DATE":null,"BSTAR":"-0.00018388000000","APOAPSIS":"548.755","MEAN_ANOMALY":"302.2969","OBJECT_NAME":"STARLINK-1474","SEMIMAJOR_AXIS":"6925.362","ELEMENT_SET_NO":"999"},{"FILE":"3459268","REV_AT_EPOCH":"10770","MEAN_MOTION_DOT":"-0.00000130","RCS_SIZE":"LARGE","TLE_LINE2":"2 45739  53.0563 302.8233 0001565  62.4997 297.6151 15.06401046107700","COUNTRY_CODE":"US","RA_OF_ASC_NODE":"302.8233","EPHEMERIS_TYPE":"0","CLASSIFICATION_TYPE":"U","REF_FRAME":"TEME","PERIAPSIS":"546.127","ARG_OF_PERICENTER":"62.4997","EPOCH":"2022-05-22T18:02:01.855968","INCLINATION":"53.0563","LAUNCH_DATE":"2020-06-13","PERIOD":"95.592","ECCENTRICITY":"0.00015650","MEAN_MOTION_DDOT":"0.0000000000000","OBJECT_TYPE":"PAYLOAD","MEAN_ELEMENT_THEORY":"SGP4","SITE":"AFETR","TLE_LINE1":"1 45739U 20038K   22142.75141037 -.00000130  00000-0  10161-4 0  9998","OBJECT_ID":"2020-038K","GP_ID":"204279767","CENTER_NAME":"EARTH","ELEMENT_SET_NO":"999","SEMIMAJOR_AXIS":"6925.345","MEAN_ANOMALY":"297.6151","OBJECT_NAME":"STARLINK-1475","BSTAR":"0.00001016100000","DECAY_DATE":null,"APOAPSIS":"548.294","MEAN_MOTION":"15.06401046","NORAD_CAT_ID":"45739","TIME_SYSTEM":"UTC"}];
